APRIZESAT 2             
1 28366U 04025A   26168.98051885  .00000119  00000+0  50552-4 0  9994
2 28366  98.1015 334.9159 0104356 247.4229 111.5892 14.38036049151758
SAUDICOMSAT 1           
1 28369U 04025D   26169.59740520  .00000287  00000+0  76904-4 0  9991
2 28369  98.5771 179.7668 0032544  21.4335 338.8216 14.55474767164335
SAUDICOMSAT 2           
1 28370U 04025E   26169.02219666  .00000179  00000+0  58100-4 0  9991
2 28370  98.6640 181.2921 0054187 256.8992 102.6150 14.49981634160220
APRIZESAT 1             
1 28372U 04025G   26169.60421087  .00000180  00000+0  56214-4 0  9995
2 28372  98.6302 180.3683 0045195 149.6089 210.7740 14.51777674162113
NANOSAT-1               
1 28493U 04049B   26169.31831192  .00000797  00000+0  11225-3 0  9991
2 28493  98.2278 306.0069 0002792 297.3962  62.6965 14.80161454155612
SAUDICOMSAT 7           
1 31119U 07012C   26169.34124628  .00000334  00000+0  69122-4 0  9992
2 31119  98.3778 143.4966 0055373 191.5497 168.4439 14.66111114 22602
SAUDICOMSAT 6           
1 31121U 07012E   26169.32171897  .00000462  00000+0  98226-4 0  9992
2 31121  98.4099 136.8592 0070984 324.2059  35.4395 14.62559599 20350
SAUDICOMSAT 5           
1 31124U 07012H   26169.38124047  .00000509  00000+0  96175-4 0  9999
2 31124  98.3489 144.2842 0048510 121.0319 239.5661 14.68157683 23774
SAUDICOMSAT 3           
1 31125U 07012J   26169.40777237  .00000683  00000+0  11944-3 0  9991
2 31125  98.3143 144.8594 0040182  49.5077 310.9619 14.70707619 25002
SAUDICOMSAT 4           
1 31127U 07012L   26169.38445650  .00000346  00000+0  73434-4 0  9990
2 31127  98.3983 141.9793 0062089 254.4095 105.0248 14.64513262 21461
APRIZESAT 4             
1 35684U 09041D   26169.47081297  .00000500  00000+0  66391-4 0  9995
2 35684  98.1412 244.8169 0042326 318.7979  41.0042 14.83880771911557
APRIZESAT 3             
1 35686U 09041F   26169.43647065  .00001583  00000+0  14062-3 0  9993
2 35686  98.2065 322.7199 0062802  63.7248 297.0406 14.96245554916561
S-NET D                 
1 43186U 18014G   26169.25358466  .00003618  00000+0  18809-3 0  9995
2 43186  97.5360  74.0376 0008841  27.1661 333.0033 15.16681429458921
S-NET B                 
1 43187U 18014H   26169.46298890  .00003930  00000+0  20413-3 0  9994
2 43187  97.5363  74.2325 0009310  21.4597 338.7025 15.16653361458958
S-NET A                 
1 43188U 18014J   26169.45038157  .00003603  00000+0  18724-3 0  9991
2 43188  97.5375  74.4288 0009201  22.0364 338.1262 15.16690399458959
S-NET C                 
1 43189U 18014K   26169.46687136  .00004030  00000+0  20926-3 0  9992
2 43189  97.5393  74.5202 0010295  13.6045 346.5463 15.16645434457500
SALSAT                  
1 46495U 20068K   26169.45370448  .00006100  00000+0  21401-3 0  9990
2 46495  97.8850 172.5955 0007986 302.8690  57.1780 15.29814902315557
OOV-CUBE (TUBSAT-30)    
1 60240U 24128F   26169.58586731  .00001416  00000+0  11902-3 0  9993
2 60240  61.9932 220.6959 0044463 134.0792 226.3973 15.02778204106324
LPNTSAT-001 (IOD-1)     
1 68408U 26065A   26169.39465905  .00002151  00000+0  10711-3 0  9991
2 68408  97.4012  49.8787 0016538   6.5853 353.5595 15.18543194 12441
